CCSDS_OMM_VERS = 2.0
CREATION_DATE  = 
ORIGINATOR     = 

OBJECT_NAME    = IDEFIX & ARIANE 42P R/B
OBJECT_ID      = 2002-021B
CENTER_NAME    = EARTH
REF_FRAME      = TEME
TIME_SYSTEM    = UTC
MEAN_ELEMENT_THEORY = SGP/SGP4

EPOCH          = 2026-02-20T20:30:57.770784
MEAN_MOTION    = 14.31013136
ECCENTRICITY   = .00107691
INCLINATION    = 98.5855
RA_OF_ASC_NODE = 350.6641
ARG_OF_PERICENTER = 234.6576
MEAN_ANOMALY   = 125.3601

EPHEMERIS_TYPE = 0
CLASSIFICATION_TYPE = U
NORAD_CAT_ID   = 27422
ELEMENT_SET_NO = 999
REV_AT_EPOCH   = 24161
BSTAR          = .11550484E-3
MEAN_MOTION_DOT = .26E-5
MEAN_MOTION_DDOT = 0

CCSDS_OMM_VERS = 2.0
CREATION_DATE  = 
ORIGINATOR     = 

OBJECT_NAME    = AQUA
OBJECT_ID      = 2002-022A
CENTER_NAME    = EARTH
REF_FRAME      = TEME
TIME_SYSTEM    = UTC
MEAN_ELEMENT_THEORY = SGP/SGP4

EPOCH          = 2026-02-20T21:48:20.108448
MEAN_MOTION    = 14.61931622
ECCENTRICITY   = .00010638
INCLINATION    = 98.4145
RA_OF_ASC_NODE = 18.9720
ARG_OF_PERICENTER = 47.2851
MEAN_ANOMALY   = 333.3981

EPHEMERIS_TYPE = 0
CLASSIFICATION_TYPE = U
NORAD_CAT_ID   = 27424
ELEMENT_SET_NO = 999
REV_AT_EPOCH   = 26628
BSTAR          = .18735079E-3
MEAN_MOTION_DOT = .889E-5
MEAN_MOTION_DDOT = 0

CCSDS_OMM_VERS = 2.0
CREATION_DATE  = 
ORIGINATOR     = 

OBJECT_NAME    = CZ-4B R/B
OBJECT_ID      = 2002-024C
CENTER_NAME    = EARTH
REF_FRAME      = TEME
TIME_SYSTEM    = UTC
MEAN_ELEMENT_THEORY = SGP/SGP4

EPOCH          = 2026-02-20T18:03:29.169216
MEAN_MOTION    = 14.14544495
ECCENTRICITY   = .00510546
INCLINATION    = 98.8880
RA_OF_ASC_NODE = 105.2413
ARG_OF_PERICENTER = 71.6785
MEAN_ANOMALY   = 37.6870

EPHEMERIS_TYPE = 0
CLASSIFICATION_TYPE = U
NORAD_CAT_ID   = 27432
ELEMENT_SET_NO = 999
REV_AT_EPOCH   = 22684
BSTAR          = .35880664E-4
MEAN_MOTION_DOT = .26E-6
MEAN_MOTION_DDOT = 0

CCSDS_OMM_VERS = 2.0
CREATION_DATE  = 
ORIGINATOR     = 

OBJECT_NAME    = MIDORI II (ADEOS-II)
OBJECT_ID      = 2002-056A
CENTER_NAME    = EARTH
REF_FRAME      = TEME
TIME_SYSTEM    = UTC
MEAN_ELEMENT_THEORY = SGP/SGP4

EPOCH          = 2026-02-20T20:41:57.437376
MEAN_MOTION    = 14.29271485
ECCENTRICITY   = .00020761
INCLINATION    = 98.7740
RA_OF_ASC_NODE = 10.2272
ARG_OF_PERICENTER = 66.2064
MEAN_ANOMALY   = 293.9335

EPHEMERIS_TYPE = 0
CLASSIFICATION_TYPE = U
NORAD_CAT_ID   = 27597
ELEMENT_SET_NO = 999
REV_AT_EPOCH   = 20789
BSTAR          = .11688849E-3
MEAN_MOTION_DOT = .252E-5
MEAN_MOTION_DDOT = 0

CCSDS_OMM_VERS = 2.0
CREATION_DATE  = 
ORIGINATOR     = 

OBJECT_NAME    = H-2A R/B
OBJECT_ID      = 2002-056E
CENTER_NAME    = EARTH
REF_FRAME      = TEME
TIME_SYSTEM    = UTC
MEAN_ELEMENT_THEORY = SGP/SGP4

EPOCH          = 2026-02-20T21:18:55.058400
MEAN_MOTION    = 14.33748263
ECCENTRICITY   = .00694683
INCLINATION    = 98.3173
RA_OF_ASC_NODE = 12.8967
ARG_OF_PERICENTER = 210.8828
MEAN_ANOMALY   = 207.8194

EPHEMERIS_TYPE = 0
CLASSIFICATION_TYPE = U
NORAD_CAT_ID   = 27601
ELEMENT_SET_NO = 999
REV_AT_EPOCH   = 21170
BSTAR          = .10143642E-3
MEAN_MOTION_DOT = .248E-5
MEAN_MOTION_DDOT = 0

CCSDS_OMM_VERS = 2.0
CREATION_DATE  = 
ORIGINATOR     = 

OBJECT_NAME    = CZ-4B R/B
OBJECT_ID      = 2003-049C
CENTER_NAME    = EARTH
REF_FRAME      = TEME
TIME_SYSTEM    = UTC
MEAN_ELEMENT_THEORY = SGP/SGP4

EPOCH          = 2026-02-20T21:05:59.565696
MEAN_MOTION    = 14.55001325
ECCENTRICITY   = .00470289
INCLINATION    = 98.6863
RA_OF_ASC_NODE = 46.1269
ARG_OF_PERICENTER = 283.4714
MEAN_ANOMALY   = 76.1244

EPHEMERIS_TYPE = 0
CLASSIFICATION_TYPE = U
NORAD_CAT_ID   = 28059
ELEMENT_SET_NO = 999
REV_AT_EPOCH   = 18415
BSTAR          = .10102976E-3
MEAN_MOTION_DOT = .389E-5
MEAN_MOTION_DDOT = 0

CCSDS_OMM_VERS = 2.0
CREATION_DATE  = 
ORIGINATOR     = 

OBJECT_NAME    = CZ-2C R/B
OBJECT_ID      = 2004-012C
CENTER_NAME    = EARTH
REF_FRAME      = TEME
TIME_SYSTEM    = UTC
MEAN_ELEMENT_THEORY = SGP/SGP4

EPOCH          = 2026-02-20T18:37:20.573184
MEAN_MOTION    = 15.62437126
ECCENTRICITY   = .00145977
INCLINATION    = 97.7267
RA_OF_ASC_NODE = 115.4906
ARG_OF_PERICENTER = 16.6783
MEAN_ANOMALY   = 343.4951

EPHEMERIS_TYPE = 0
CLASSIFICATION_TYPE = U
NORAD_CAT_ID   = 28222
ELEMENT_SET_NO = 999
REV_AT_EPOCH   = 20163
BSTAR          = .54237085E-3
MEAN_MOTION_DOT = .48435E-3
MEAN_MOTION_DDOT = 0

CCSDS_OMM_VERS = 2.0
CREATION_DATE  = 
ORIGINATOR     = 

OBJECT_NAME    = SL-16 R/B
OBJECT_ID      = 2004-021B
CENTER_NAME    = EARTH
REF_FRAME      = TEME
TIME_SYSTEM    = UTC
MEAN_ELEMENT_THEORY = SGP/SGP4

EPOCH          = 2026-02-20T20:08:59.821728
MEAN_MOTION    = 14.14597342
ECCENTRICITY   = .00032849
INCLINATION    = 70.9989
RA_OF_ASC_NODE = 267.8560
ARG_OF_PERICENTER = 48.8410
MEAN_ANOMALY   = 311.2996

EPHEMERIS_TYPE = 0
CLASSIFICATION_TYPE = U
NORAD_CAT_ID   = 28353
ELEMENT_SET_NO = 999
REV_AT_EPOCH   = 12045
BSTAR          = .15481299E-3
MEAN_MOTION_DOT = .25E-5
MEAN_MOTION_DDOT = 0

CCSDS_OMM_VERS = 2.0
CREATION_DATE  = 
ORIGINATOR     = 

OBJECT_NAME    = CZ-4B R/B
OBJECT_ID      = 2004-035C
CENTER_NAME    = EARTH
REF_FRAME      = TEME
TIME_SYSTEM    = UTC
MEAN_ELEMENT_THEORY = SGP/SGP4

EPOCH          = 2026-02-20T13:33:58.264416
MEAN_MOTION    = 15.28724590
ECCENTRICITY   = .00331692
INCLINATION    = 97.3522
RA_OF_ASC_NODE = 86.0151
ARG_OF_PERICENTER = 32.3982
MEAN_ANOMALY   = 327.9285

EPHEMERIS_TYPE = 0
CLASSIFICATION_TYPE = U
NORAD_CAT_ID   = 28415
ELEMENT_SET_NO = 999
REV_AT_EPOCH   = 17729
BSTAR          = .26766342E-3
MEAN_MOTION_DOT = .7522E-4
MEAN_MOTION_DDOT = 0

CCSDS_OMM_VERS = 2.0
CREATION_DATE  = 
ORIGINATOR     = 

OBJECT_NAME    = CZ-2C R/B
OBJECT_ID      = 2004-046B
CENTER_NAME    = EARTH
REF_FRAME      = TEME
TIME_SYSTEM    = UTC
MEAN_ELEMENT_THEORY = SGP/SGP4

EPOCH          = 2026-02-20T20:48:58.741920
MEAN_MOTION    = 14.26985854
ECCENTRICITY   = .01388485
INCLINATION    = 98.1991
RA_OF_ASC_NODE = 327.8969
ARG_OF_PERICENTER = 204.1998
MEAN_ANOMALY   = 155.2621

EPHEMERIS_TYPE = 0
CLASSIFICATION_TYPE = U
NORAD_CAT_ID   = 28480
ELEMENT_SET_NO = 999
REV_AT_EPOCH   = 10610
BSTAR          = .56310105E-4
MEAN_MOTION_DOT = .11E-5
MEAN_MOTION_DDOT = 0

CCSDS_OMM_VERS = 2.0
CREATION_DATE  = 
ORIGINATOR     = 

OBJECT_NAME    = ARIANE 5 R/B
OBJECT_ID      = 2004-049H
CENTER_NAME    = EARTH
REF_FRAME      = TEME
TIME_SYSTEM    = UTC
MEAN_ELEMENT_THEORY = SGP/SGP4

EPOCH          = 2026-02-20T10:53:07.215072
MEAN_MOTION    = 14.85229890
ECCENTRICITY   = .00850765
INCLINATION    = 98.2597
RA_OF_ASC_NODE = 219.2688
ARG_OF_PERICENTER = 47.5666
MEAN_ANOMALY   = 313.2702

EPHEMERIS_TYPE = 0
CLASSIFICATION_TYPE = U
NORAD_CAT_ID   = 28499
ELEMENT_SET_NO = 999
REV_AT_EPOCH   = 14323
BSTAR          = .84098301E-4
MEAN_MOTION_DOT = .705E-5
MEAN_MOTION_DDOT = 0

CCSDS_OMM_VERS = 2.0
CREATION_DATE  = 
ORIGINATOR     = 

OBJECT_NAME    = CZ-2D R/B
OBJECT_ID      = 2005-024B
CENTER_NAME    = EARTH
REF_FRAME      = TEME
TIME_SYSTEM    = UTC
MEAN_ELEMENT_THEORY = SGP/SGP4

EPOCH          = 2026-02-20T13:47:54.580992
MEAN_MOTION    = 15.58534469
ECCENTRICITY   = .00076206
INCLINATION    = 97.3609
RA_OF_ASC_NODE = 66.1147
ARG_OF_PERICENTER = 87.8657
MEAN_ANOMALY   = 272.3471

EPHEMERIS_TYPE = 0
CLASSIFICATION_TYPE = U
NORAD_CAT_ID   = 28738
ELEMENT_SET_NO = 999
REV_AT_EPOCH   = 13711
BSTAR          = .47348444E-3
MEAN_MOTION_DOT = .36226E-3
MEAN_MOTION_DDOT = 0

