IDEFIX & ARIANE 42P R/B 
1 27422U 02021B   26051.85483531  .00000260  00000+0  11550-3 0  9995
2 27422  98.5855 350.6641 0010769 234.6576 125.3601 14.31013136241615
AQUA                    
1 27424U 02022A   26051.90856607  .00000889  00000+0  18735-3 0  9991
2 27424  98.4145  18.9720 0001063  47.2851 333.3981 14.61931622266285
CZ-4B R/B               
1 27432U 02024C   26051.75242094  .00000026  00000+0  35881-4 0  9999
2 27432  98.8880 105.2413 0051054  71.6785  37.6870 14.14544495226840
MIDORI II (ADEOS-II)    
1 27597U 02056A   26051.86247034  .00000252  00000+0  11689-3 0  9997
2 27597  98.7740  10.2272 0002076  66.2064 293.9335 14.29271485207893
H-2A R/B                
1 27601U 02056E   26051.88813725  .00000248  00000+0  10144-3 0  9991
2 27601  98.3173  12.8967 0069468 210.8828 207.8194 14.33748263211707
CZ-4B R/B               
1 28059U 03049C   26051.87916164  .00000389  00000+0  10103-3 0  9993
2 28059  98.6863  46.1269 0047028 283.4714  76.1244 14.55001325184153
CZ-2C R/B               
1 28222U 04012C   26051.77593256  .00048435  00000+0  54237-3 0  9998
2 28222  97.7267 115.4906 0014597  16.6783 343.4951 15.62437126201637
SL-16 R/B               
1 28353U 04021B   26051.83958127  .00000250  00000+0  15481-3 0  9993
2 28353  70.9989 267.8560 0003284  48.8410 311.2996 14.14597342120454
CZ-4B R/B               
1 28415U 04035C   26051.56525769  .00007522  00000+0  26766-3 0  9996
2 28415  97.3522  86.0151 0033169  32.3982 327.9285 15.28724590177295
CZ-2C R/B               
1 28480U 04046B   26051.86734655  .00000110  00000+0  56310-4 0  9994
2 28480  98.1991 327.8969 0138848 204.1998 155.2621 14.26985854106102
ARIANE 5 R/B            
1 28499U 04049H   26051.45355573  .00000705  00000+0  84098-4 0  9994
2 28499  98.2597 219.2688 0085076  47.5666 313.2702 14.85229890143239
CZ-2D R/B               
1 28738U 05024B   26051.57493728  .00036226  00000+0  47348-3 0  9995
2 28738  97.3609  66.1147 0007620  87.8657 272.3471 15.58534469137114
